STARLINK-31731          
1 59498U 24071Q   26068.12869821  .00000134  00000+0  14367-4 0  9990
2 59498  42.9998 342.5812 0000158 254.2936 105.7898 15.27579788108127
AL MUNTHER              
1 63240U 25052AG  26068.64540749  .00017933  00000+0  65015-3 0  9992
2 63240  97.4001 323.9152 0008027 130.7043 229.4895 15.28381521 54798
